KUIPER-00104            
1 65142U 25171L   25267.96673344  .00062546  00000+0  17301-2 0  9994
2 65142  51.8777 190.3287 0003295 299.3260  60.7397 15.36414519  8071
KUIPER-00105            
1 65143U 25171M   25268.27614741 -.00054571  00000+0 -15225-2 0  9990
2 65143  51.8752 188.6499 0004666 281.5125  78.5337 15.36207312  8135
KUIPER-00106            
1 65144U 25171N   25268.33339120 -.00579237  00000+0 -24128-1 0  9995
2 65144  51.8788 188.9075 0005214 275.2644 112.6883 15.25403556  4514
KUIPER-00107            
1 65145U 25171P   25268.02838908  .00052653  00000+0  14526-2 0  9998
2 65145  51.8766 189.9908 0004451 299.8107  60.2436 15.36570834  8090
KUIPER-00108            
1 65146U 25171Q   25267.97555493  .00050427  00000+0  14110-2 0  9993
2 65146  51.8776 190.3851 0004083 316.2065  43.8597 15.36149646  8080
KUIPER-00109            
1 65147U 25171R   25268.08817182  .00047176  00000+0  12928-2 0  9995
2 65147  51.8761 189.6359 0004184 286.5604  73.4922 15.36827880  8094
KUIPER-00110            
1 65148U 25171S   25268.33339120 -.00324744  00000+0 -11200-1 0  9997
2 65148  51.8783 188.5812 0004665 304.1923 260.3486 15.30821861  5542
KUIPER-00111            
1 65149U 25171T   25268.33339120 -.00604719  00000+0 -28412-1 0  9994
2 65149  51.8822 189.4058 0005200 298.3447 243.5074 15.21473030  4850
